NORAD_CAT_ID,OBJECT_NAME,OBJECT_TYPE,EPOCH,MEAN_MOTION,ECCENTRICITY,INCLINATION,RA_OF_ASC_NODE,ARG_OF_PERICENTER,MEAN_ANOMALY,BSTAR,MEAN_MOTION_DOT,MEAN_MOTION_DDOT,TLE_LINE0,TLE_LINE1,TLE_LINE2,SEMIMAJOR_AXIS,PERIOD,APOGEE,PERIGEE,DECAYED
51117.0,STARLINK-3391,PAYLOAD,2024-06-06 12:24:48,15.08837307,0.0001482,53.2174,287.3426,95.7794,264.3367,9.4495e-06,-1.38e-06,0.0,0 STARLINK-3391,1 51117U 22005P   24158.51722543 -.00000138  00000-0  94495-5 0  9992,2 51117  53.2174 287.3426 0001482  95.7794 264.3367 15.08837307133197,6917.889,95.438,540.779,538.728,0.0
51117.0,STARLINK-3391,PAYLOAD,2024-06-06 15:35:33,15.08846012,0.0001276,53.2179,286.747,80.4979,279.6157,0.00010936,1.453e-05,0.0,0 STARLINK-3391,1 51117U 22005P   24158.64969771  .00001453  00000-0  10936-3 0  9998,2 51117  53.2179 286.7470 0001276  80.4979 279.6157 15.08846012132100,6917.862,95.437,540.61,538.844,0.0
51117.0,STARLINK-3391,PAYLOAD,2024-06-07 09:04:49,15.08836058,9.14e-05,53.2188,283.4783,83.3722,276.7374,4.2501e-05,3.89e-06,0.0,0 STARLINK-3391,1 51117U 22005P   24159.37834868  .00000389  00000-0  42501-4 0  9998,2 51117  53.2188 283.4783 0000914  83.3722 276.7374 15.08836058133320,6917.892,95.438,540.39,539.125,0.0
51117.0,STARLINK-3391,PAYLOAD,2024-06-07 15:26:21,15.08847311,0.0001154,53.2173,282.2882,92.3729,267.7395,0.00014008,1.943e-05,0.0,0 STARLINK-3391,1 51117U 22005P   24159.64329974  .00001943  00000-0  14008-3 0  9992,2 51117  53.2173 282.2882 0001154  92.3729 267.7395 15.08847311132253,6917.858,95.437,540.521,538.925,0.0
51117.0,STARLINK-3391,PAYLOAD,2024-06-08 12:06:21,15.08849501,0.0001077,53.2162,278.4219,83.536,276.5755,8.7374e-05,1.103e-05,0.0,0 STARLINK-3391,1 51117U 22005P   24160.50441820  .00001103  00000-0  87374-4 0  9999,2 51117  53.2162 278.4219 0001077  83.5360 276.5755 15.08849501132384,6917.851,95.437,540.461,538.971,0.0
51117.0,STARLINK-3391,PAYLOAD,2024-06-08 16:52:30,15.08858309,0.0001442,53.2157,277.5286,81.0431,279.0724,0.00017232,2.457e-05,0.0,0 STARLINK-3391,1 51117U 22005P   24160.70312891  .00002457  00000-0  17232-3 0  9994,2 51117  53.2157 277.5286 0001442  81.0431 279.0724 15.08858309133527,6917.824,95.436,540.687,538.692,0.0
51117.0,STARLINK-3391,PAYLOAD,2024-06-09 00:49:26,15.08841922,0.0001427,53.2155,276.0423,67.2547,292.8595,0.00010739,1.422e-05,0.0,0 STARLINK-3391,1 51117U 22005P   24161.03434002  .00001422  00000-0  10739-3 0  9996,2 51117  53.2155 276.0423 0001427  67.2547 292.8595 15.08841922133576,6917.875,95.437,540.727,538.752,0.0
51117.0,STARLINK-3391,PAYLOAD,2024-06-09 11:57:10,15.08828499,0.0001528,53.2168,273.9615,76.4854,283.6309,-0.00012376,-2.256e-05,0.0,0 STARLINK-3391,1 51117U 22005P   24161.49803819 -.00002256  00000-0 -12376-3 0  9999,2 51117  53.2168 273.9615 0001528  76.4854 283.6309 15.08828499133647,6917.916,95.438,540.838,538.723,0.0
51117.0,STARLINK-3391,PAYLOAD,2024-06-10 00:40:15,15.08832544,0.0001646,53.213,271.5791,83.3863,276.7317,6.4492e-06,-1.85e-06,0.0,0 STARLINK-3391,1 51117U 22005P   24162.02795388 -.00000185  00000-0  64492-5 0  9996,2 51117  53.2130 271.5791 0001646  83.3863 276.7317 15.08832544133720,6917.903,95.438,540.907,538.629,0.0
51117.0,STARLINK-3391,PAYLOAD,2024-06-10 13:23:18,15.08853908,0.0001558,53.2161,269.2035,79.1225,280.9942,9.8609e-05,1.282e-05,0.0,0 STARLINK-3391,1 51117U 22005P   24162.55785773  .00001282  00000-0  98609-4 0  9995,2 51117  53.2161 269.2035 0001558  79.1225 280.9942 15.08853908133803,6917.838,95.437,540.781,538.625,0.0
51117.0,STARLINK-3391,PAYLOAD,2024-06-11 00:31:01,15.08849811,0.000129,53.2147,267.1234,73.0849,287.0285,0.00023055,3.384e-05,0.0,0 STARLINK-3391,1 51117U 22005P   24163.02154062  .00003384  00000-0  23055-3 0  9996,2 51117  53.2147 267.1234 0001290  73.0849 287.0285 15.08849811133876,6917.85,95.437,540.608,538.823,0.0
51117.0,STARLINK-3391,PAYLOAD,2024-06-11 13:14:06,15.08841308,0.0001546,53.2156,264.7423,80.2203,279.8964,0.00032525,4.892e-05,0.0,0 STARLINK-3391,1 51117U 22005P   24163.55146760  .00004892  00000-0  32525-3 0  9997,2 51117  53.2156 264.7423 0001546  80.2203 279.8964 15.08841308132849,6917.876,95.437,540.811,538.672,0.0
51117.0,STARLINK-3391,PAYLOAD,2024-06-12 13:04:54,15.08836163,0.0001253,53.2161,260.2811,83.5502,276.5633,1.7448e-05,-1e-07,0.0,0 STARLINK-3391,1 51117U 22005P   24164.54507262 -.00000010  00000-0  17448-4 0  9992,2 51117  53.2161 260.2811 0001253  83.5502 276.5633 15.08836163134101,6917.892,95.438,540.624,538.89,0.0
51117.0,STARLINK-3391,PAYLOAD,2024-06-13 12:55:41,15.08839007,0.0001053,53.2164,255.8232,85.0757,275.0356,9.4741e-05,1.22e-05,0.0,0 STARLINK-3391,1 51117U 22005P   24165.53867060  .00001220  00000-0  94741-4 0  9991,2 51117  53.2164 255.8232 0001053  85.0757 275.0356 15.08839007133147,6917.883,95.438,540.477,539.02,0.0
51117.0,STARLINK-3391,PAYLOAD,2024-06-14 12:46:28,15.08841299,0.000107,53.2169,251.3636,89.9651,270.1464,0.00017526,2.503e-05,0.0,0 STARLINK-3391,1 51117U 22005P   24166.53227025  .00002503  00000-0  17526-3 0  9993,2 51117  53.2169 251.3636 0001070  89.9651 270.1464 15.08841299133294,6917.876,95.437,540.482,539.001,0.0
51117.0,STARLINK-3391,PAYLOAD,2024-06-15 12:37:15,15.08844452,0.0001074,53.2167,246.9033,88.0343,272.0772,9.6139e-05,1.243e-05,0.0,0 STARLINK-3391,1 51117U 22005P   24167.52586969  .00001243  00000-0  96139-4 0  9996,2 51117  53.2167 246.9033 0001074  88.0343 272.0772 15.08844452134552,6917.867,95.437,540.475,538.989,0.0
51117.0,STARLINK-3391,PAYLOAD,2024-06-15 22:09:34,15.08842297,0.0001042,53.2163,245.1194,87.1837,272.9274,7.559e-05,9.16e-06,0.0,0 STARLINK-3391,1 51117U 22005P   24167.92331054  .00000916  00000-0  75590-4 0  9997,2 51117  53.2163 245.1194 0001042  87.1837 272.9274 15.08842297133505,6917.873,95.437,540.459,539.018,0.0
51117.0,STARLINK-3391,PAYLOAD,2024-06-16 14:03:25,15.08827331,0.0001341,53.2174,242.147,97.1526,262.9619,0.00034671,5.232e-05,0.0,0 STARLINK-3391,1 51117U 22005P   24168.58571219  .00005232  00000-0  34671-3 0  9999,2 51117  53.2174 242.1470 0001341  97.1526 262.9619 15.08827331133604,6917.919,95.438,540.712,538.856,0.0
51117.0,STARLINK-3391,PAYLOAD,2024-06-16 22:00:21,15.08837784,0.0001154,53.2166,240.6563,79.2333,280.8789,1.1513e-05,-1.05e-06,0.0,0 STARLINK-3391,1 51117U 22005P   24168.91691375 -.00000105  00000-0  11513-4 0  9998,2 51117  53.2166 240.6563 0001154  79.2333 280.8789 15.08837784133655,6917.887,95.438,540.55,538.954,0.0
51117.0,STARLINK-3391,PAYLOAD,2024-06-17 21:51:08,15.08839489,0.0001123,53.2161,236.1972,82.6406,277.4714,3.5455e-05,2.76e-06,0.0,0 STARLINK-3391,1 51117U 22005P   24169.91051285  .00000276  00000-0  35455-4 0  9998,2 51117  53.2161 236.1972 0001123  82.6406 277.4714 15.08839489133800,6917.882,95.438,540.524,538.97,0.0
51117.0,STARLINK-3391,PAYLOAD,2024-06-18 04:12:40,15.08838076,0.0001101,53.2162,235.0074,83.9226,276.1892,7.4033e-05,8.91e-06,0.0,0 STARLINK-3391,1 51117U 22005P   24170.17547245  .00000891  00000-0  74033-4 0  9992,2 51117  53.2162 235.0074 0001101  83.9226 276.1892 15.08838076134953,6917.886,95.438,540.513,538.99,0.0
51117.0,STARLINK-3391,PAYLOAD,2024-06-18 10:34:13,15.08844472,0.0001198,53.2159,233.818,86.2234,273.8896,4.4991e-05,4.28e-06,0.0,0 STARLINK-3391,1 51117U 22005P   24170.44042960  .00000428  00000-0  44991-4 0  9992,2 51117  53.2159 233.8180 0001198  86.2234 273.8896 15.08844472133880,6917.867,95.437,540.56,538.903,0.0
51117.0,STARLINK-3391,PAYLOAD,2024-06-18 21:41:55,15.08838165,0.000117,53.2157,231.7362,90.8119,269.3007,0.00013098,1.797e-05,0.0,0 STARLINK-3391,1 51117U 22005P   24170.90411024  .00001797  00000-0  13098-3 0  9997,2 51117  53.2157 231.7362 0001170  90.8119 269.3007 15.08838165133954,6917.886,95.438,540.56,538.942,0.0
51117.0,STARLINK-3391,PAYLOAD,2024-06-19 10:25:00,15.08837174,0.0001189,53.216,229.3574,87.2751,272.8377,8.9008e-05,1.129e-05,0.0,0 STARLINK-3391,1 51117U 22005P   24171.43403246  .00001129  00000-0  89008-4 0  9997,2 51117  53.2160 229.3574 0001189  87.2751 272.8377 15.08837174135149,6917.889,95.438,540.577,538.931,0.0
51117.0,STARLINK-3391,PAYLOAD,2024-06-19 13:35:46,15.08843415,0.0001243,53.216,228.7617,89.5627,270.5508,9.2731e-05,1.188e-05,0.0,0 STARLINK-3391,1 51117U 22005P   24171.56650820  .00001188  00000-0  92731-4 0  9995,2 51117  53.2160 228.7617 0001243  89.5627 270.5508 15.08843415134053,6917.87,95.437,540.595,538.875,0.0
51117.0,STARLINK-3391,PAYLOAD,2024-06-20 13:26:34,15.08838242,0.0001301,53.2163,224.3008,93.2119,266.9022,-2.4071e-05,-6.71e-06,0.0,0 STARLINK-3391,1 51117U 22005P   24172.56011610 -.00000671  00000-0 -24071-4 0  9994,2 51117  53.2163 224.3008 0001301  93.2119 266.9022 15.08838242134204,6917.886,95.438,540.651,538.851,0.0
51117.0,STARLINK-3391,PAYLOAD,2024-06-21 10:06:34,15.08839877,0.0001322,53.2167,220.4347,94.285,265.8294,4.5692e-05,4.39e-06,0.0,0 STARLINK-3391,1 51117U 22005P   24173.42123340  .00000439  00000-0  45692-4 0  9996,2 51117  53.2167 220.4347 0001322  94.2850 265.8294 15.08839877134335,6917.881,95.438,540.66,538.831,0.0
51117.0,STARLINK-3391,PAYLOAD,2024-06-22 09:57:22,15.08831525,0.0001348,53.2166,215.9749,91.006,269.1086,1.7711e-05,-6e-08,0.0,0 STARLINK-3391,1 51117U 22005P   24174.41484353 -.00000006  00000-0  17711-4 0  9992,2 51117  53.2166 215.9749 0001348  91.0060 269.1086 15.08831525135592,6917.906,95.438,540.704,538.839,0.0
51117.0,STARLINK-3391,PAYLOAD,2024-06-23 03:26:36,15.08837991,0.0001386,53.2168,212.7067,96.5128,263.6022,3.3251e-05,2.41e-06,0.0,0 STARLINK-3391,1 51117U 22005P   24175.14348129  .00000241  00000-0  33251-4 0  9990,2 51117  53.2168 212.7067 0001386  96.5128 263.6022 15.08837991135704,6917.887,95.438,540.71,538.793,0.0
51117.0,STARLINK-3391,PAYLOAD,2024-06-23 09:48:09,15.08841017,0.0001367,53.2165,211.5161,95.441,264.6738,5.2879e-05,5.54e-06,0.0,0 STARLINK-3391,1 51117U 22005P   24175.40843884  .00000554  00000-0  52879-4 0  9991,2 51117  53.2165 211.5161 0001367  95.4410 264.6738 15.08841017134634,6917.877,95.437,540.688,538.797,0.0
